351P/Wiegert-PANSTARRS,e,12.7856,283.4453,352.6820,4.437907,0.1054234,0.29566695,228.6441,10/27.0/2021,2000,g 12.5,4.0
# From MPC110086
352P/Skiff,e,21.0101,28.0412,309.2386,6.639723,0.0576075,0.61823154,91.4349,10/27.0/2021,2000,g 11.5,4.0
# From MPEC 2020-AA5
353P/McNaught,e,28.4217,121.5572,230.4015,4.171013,0.1157022,0.47028809,162.5214,10/27.0/2021,2000,g 14.5,4.0
# From MPC105545
354P/LINEAR,e,5.2556,320.1288,132.9045,2.289345,0.2845359,0.12570558,155.9037,10/27.0/2021,2000,g 15.5,4.0
# From MPEC 2020-AA5
355P/LINEAR-NEAT,e,11.0421,51.4299,336.2630,3.471203,0.1523997,0.50743850,224.7168,10/27.0/2021,2000,g 15.5,2.0
# From MPEC 2021-F20
356P/WISE,e,9.6380,160.7976,225.9885,4.158844,0.1162104,0.35530861,163.7495,10/27.0/2021,2000,g 14.0,4.0
# From MPC114609
357P/Hill,e,6.3130,44.5638,1.3869,4.459707,0.1046513,0.43508469,130.4657,10/27.0/2021,2000,g 15.5,4.0
# From MPEC 2020-HN5
358P/PANSTARRS,e,11.0588,85.7041,299.7438,3.147137,0.1765349,0.23864665,228.4297,10/27.0/2021,2000,g 18.0,4.0
# From MPC110086
359P/LONEOS,e,10.2676,149.7558,200.1839,4.639652,0.0986225,0.32420695,150.5809,10/27.0/2021,2000,g 13.5,4.0
# From MPC108599
360P/WISE,e,24.1092,2.1906,354.1426,3.701659,0.1383915,0.49909166,211.5835,10/27.0/2021,2000,g 19.5,6.0
# From MPC114609
361P/Spacewatch,e,13.8961,203.2509,219.0279,4.937592,0.0898320,0.43830231,108.9290,10/27.0/2021,2000,g 12.0,4.0
# From MPEC 2017-V13
362P/,e,15.5562,192.5579,53.6958,3.969640,0.1246170,0.27920801,235.6836,10/27.0/2021,2000,g 12.9,2.0
# From MPC114609
363P/Lemmon,e,5.4105,146.8857,341.2218,3.556336,0.1469602,0.52325935,196.6092,10/27.0/2021,2000,g 17.5,4.0
# From MPEC 2021-F20
364P/PANSTARRS,e,12.1374,46.1779,212.0160,2.879472,0.2017134,0.72205499,246.2480,10/27.0/2021,2000,g 17.0,2.0
# From MPC111775
365P/PANSTARRS,e,9.8207,87.0321,66.5996,3.172374,0.1744325,0.57875225,235.5956,10/27.0/2021,2000,g 17.0,4.0
# From MPC114610
366P/Spacewatch,e,8.8582,70.7612,153.1205,3.496060,0.1507773,0.34812531,180.1405,10/27.0/2021,2000,g 15.0,4.0
# From MPC112395
367P/Catalina,e,8.4615,58.7219,172.8909,3.506219,0.1501224,0.28004885,183.8392,10/27.0/2021,2000,g 17.5,2.0
# From MPC114610
368P/NEAT,e,15.4809,257.9218,118.8133,5.527454,0.0758432,0.62656975,86.3177,10/27.0/2021,2000,g 14.0,4.0
# From MPC114610
369P/Hill,e,10.3170,47.2919,13.1653,4.383458,0.1073937,0.55467542,118.9545,10/27.0/2021,2000,g 15.0,4.0
# From MPEC 2021-F20
370P/NEAT,e,19.4098,55.1026,356.6792,6.434268,0.0603887,0.61480899,74.5914,10/27.0/2021,2000,g 13.0,4.0
# From MPC114610
371P/LINEAR-Skiff,e,17.3787,67.2849,308.4799,4.180861,0.1152937,0.47683774,128.8692,10/27.0/2021,2000,g 16.0,4.0
# From MPEC 2020-K19
372P/McNaught,e,9.5100,325.8160,27.3906,4.505399,0.1030633,0.15275088,113.4015,10/27.0/2021,2000,g 13.5,4.0
# From MPEC 2021-F20
373P/Rinner,e,13.7638,231.9495,221.0671,3.802830,0.1329057,0.39230764,123.9056,10/27.0/2021,2000,g 14.5,4.0
# From MPC114610
374P/Larson,e,10.7654,7.9128,51.4669,4.972849,0.0888784,0.46273513,90.6667,10/27.0/2021,2000,g 14.0,4.0
# From MPEC 2021-F20
375P/Hill,e,17.3614,359.9498,119.4305,5.554475,0.0752904,0.65855447,78.3883,10/27.0/2021,2000,g 16.0,4.0
# From MPEC 2021-S45
376P/LONEOS,e,1.1875,314.6694,284.6187,5.816669,0.0702575,0.51707447,53.5349,10/27.0/2021,2000,g 12.5,4.0
# From MPEC 2021-N06
377P/Scotti,e,9.0237,226.0623,355.0522,6.709014,0.0567174,0.25210504,26.7670,10/27.0/2021,2000,g  9.5,4.0
# From MPEC 2021-UA9
378P/McNaught,e,19.0476,94.3308,193.8355,6.367702,0.0613380,0.46967607,22.8861,10/27.0/2021,2000,g 12.0,4.0
# From MPC115889
379P/Spacewatch,e,12.4327,183.8214,30.8556,3.518205,0.1493559,0.34068306,122.1472,10/27.0/2021,2000,g 15.0,4.0
# From MPEC 2020-KB7
380P/PANSTARRS,e,8.2732,132.9388,87.6970,4.489912,0.1035970,0.33460464,91.1063,10/27.0/2021,2000,g 12.5,4.0
# From MPEC 2021-J28
381P/LINEAR-Spacewatch,e,28.3773,173.7633,173.1998,7.127327,0.0517981,0.68191853,39.4119,10/27.0/2021,2000,g 17.5,2.0
# From MPEC 2021-UA9
382P/Larson,e,8.0772,174.1971,172.5429,6.468659,0.0599077,0.31742688,352.2186,10/27.0/2021,2000,g  8.0,4.0
# From MPC118844
383P/Christensen,e,12.3221,207.8536,133.7089,3.545748,0.1476190,0.59962435,107.9989,10/27.0/2021,2000,g 18.0,4.0
# From MPEC 2021-S45
384P/Kowalski,e,7.2845,354.2303,37.6157,2.900793,0.1994936,0.61576132,148.8903,10/27.0/2021,2000,g 19.5,4.0
# From MPEC 2021-F20
385P/Hill,e,16.8314,357.0606,44.3207,4.288352,0.1109861,0.40163693,85.7949,10/27.0/2021,2000,g 13.0,4.0
# From MPEC 2021-L04
386P/PANSTARRS,e,15.2296,134.9474,353.1943,4.055643,0.1206742,0.41623225,52.3505,10/27.0/2021,2000,g 14.5,4.0
# From MPEC 2021-J28
387P/Boattini,e,8.9207,259.3028,162.7703,4.797838,0.0937855,0.73625080,73.3101,10/27.0/2021,2000,g 15.0,4.0
# From MPEC 2021-S45
388P/Gibbs,e,23.8738,37.0417,42.3399,5.243019,0.0820979,0.61812766,67.8447,10/27.0/2021,2000,g 13.0,4.0
# From MPEC 2021-J28
389P/Siding Spring,e,160.0732,218.8568,249.3342,5.628945,0.0738012,0.70429810,49.2829,10/27.0/2021,2000,g 16.0,4.0
# From MPEC 2021-S45
390P/Gibbs,e,18.5624,152.2748,232.3554,5.805076,0.0704680,0.70723732,41.1278,10/27.0/2021,2000,g 12.0,4.0
# From MPEC 2021-F20
391P/Kowalski,e,21.2751,124.7327,187.1046,4.680280,0.0973411,0.12052304,128.0161,10/27.0/2021,2000,g  8.0,4.0
# From MPEC 2021-J28
392P/LINEAR,e,4.9310,24.8820,71.9378,6.143834,0.0647209,0.68281075,37.1640,10/27.0/2021,2000,g 14.5,4.0
# From MPEC 2021-BE3
393P/Spacewatch-Hill,e,16.7894,36.4104,328.3744,4.788105,0.0940716,0.12066338,68.7886,10/27.0/2021,2000,g 11.0,4.0
# From MPEC 2020-KB7
394P/PANSTARRS,e,8.5294,98.1252,54.5154,4.331657,0.1093259,0.36769808,76.1809,10/27.0/2021,2000,g 16.0,2.4
# From MPEC 2021-UA9
395P/Catalina-NEAT,e,3.2764,223.6964,89.8231,6.554403,0.0587360,0.37982532,356.2112,10/27.0/2021,2000,g 10.0,4.0
# From MPEC 2020-KB7
396P/,e,5.4363,136.6642,8.5503,6.814624,0.0554040,0.41578151,43.8118,10/27.0/2021,2000,g 12.0,4.0
# From MPEC 2021-O56
397P/Lemmon,e,10.9289,8.1985,14.4554,3.828205,0.1315865,0.40516846,65.0744,10/27.0/2021,2000,g 12.0,4.0
# From MPEC 2021-L04
398P/Boattini,e,11.0153,127.4608,320.2202,3.127810,0.1781737,0.58266416,54.2106,10/27.0/2021,2000,g 15.5,4.0
# From MPEC 2021-F20
399P/PANSTARRS,e,13.3187,207.1425,214.3002,3.790288,0.1335660,0.44699996,21.0252,10/27.0/2021,2000,g 15.6,4.0
# From MPEC 2020-FB5
400P/PANSTARRS,e,10.9294,176.3927,238.8003,3.560439,0.1467063,0.40924938,37.9771,10/27.0/2021,2000,g 15.5,2.8
# From MPEC 2021-R75
401P/McNaught,e,12.8027,359.8811,309.3590,5.773756,0.0710422,0.58003130,49.0109,10/27.0/2021,2000,g 12.5,4.0
# From MPEC 2021-UA9
402P/LINEAR,e,30.8521,123.0905,326.7364,7.013814,0.0530607,0.43856037,357.4226,10/27.0/2021,2000,g  8.0,4.0
# From MPEC 2021-J28
403P/Catalina,e,12.3216,163.8124,277.6556,5.427509,0.0779477,0.50349656,31.6199,10/27.0/2021,2000,g 12.0,4.0
# From MPEC 2021-U31
404P/Bressi,e,9.7170,261.2857,164.2713,4.807381,0.0935064,0.13645922,293.9748,10/27.0/2021,2000,g 10.0,4.0
# From MPEC 2021-L04
405P/Lemmon,e,9.3655,3.3149,112.2281,3.608154,0.1438058,0.68912310,44.1053,10/27.0/2021,2000,g 17.5,4.0
# From MPEC 2021-F20
406P/Gibbs,e,1.2135,11.4716,352.3919,3.574943,0.1458144,0.54205222,59.2342,10/27.0/2021,2000,g 17.0,4.0
# From MPEC 2021-F20
407P/PANSTARRS-Fuls,e,4.8873,80.7665,92.8002,3.463080,0.1529362,0.38425265,96.9031,10/27.0/2021,2000,g 14.0,4.0
# From MPEC 2021-UA9
408P/Novichonok-Gerke,e,19.3438,189.4375,226.2157,4.755663,0.0950358,0.27059690,327.5422,10/27.0/2021,2000,g 11.0,4.0
# From MPEC 2021-UA9
409P/LONEOS-Hill,e,17.1188,143.6715,15.1259,6.045643,0.0663041,0.70987328,18.0254,10/27.0/2021,2000,g 14.0,4.0
# From MPEC 2021-F20
410P/NEAT-LINEAR,e,9.3938,139.9803,313.0899,6.634174,0.0576798,0.51056438,7.2363,10/27.0/2021,2000,g 12.5,4.0
# From MPEC 2021-J28
411P/Christensen,e,12.3779,77.6670,46.6596,5.817031,0.0702509,0.58080134,19.3628,10/27.0/2021,2000,g 13.5,4.0
# From MPEC 2021-F20
412P/WISE,e,8.9312,0.8487,155.9190,3.109443,0.1797546,0.47973525,58.5378,10/27.0/2021,2000,g 17.0,4.0
# From MPEC 2021-O56
413P/Larson,e,15.9785,39.0257,186.0450,3.709989,0.1379257,0.42320624,13.6243,10/27.0/2021,2000,g 14.0,4.0
# From MPEC 2021-BE3
414P/STEREO,e,23.3842,257.7893,210.7279,2.794324,0.2110032,0.81162710,57.9478,10/27.0/2021,2000,g 19.0,4.0
# From MPEC 2021-N06
415P/Tenagra,e,31.7922,160.2949,346.2267,4.115148,0.1180663,0.19472706,29.9911,10/27.0/2021,2000,g 12.0,4.0
# From MPEC 2021-L04
416P/Scotti,e,3.3614,355.8124,134.4979,4.012701,0.1226165,0.45430847,31.0930,10/27.0/2021,2000,g 15.5,4.0
# From MPEC 2021-S45
417P/NEOWISE,e,8.1298,111.3470,129.4771,3.349852,0.1607554,0.55460254,30.1879,10/27.0/2021,2000,g 16.5,4.0
# From MPEC 2021-L04
418P/LINEAR,e,5.7974,277.6573,307.1005,5.079626,0.0860907,0.66476019,0.8122,10/27.0/2021,2000,g 13.0,4.0
# From MPEC 2021-S45
419P/PANSTARRS,e,2.8029,40.3899,187.5016,3.520975,0.1491797,0.27768288,359.9311,10/27.0/2021,2000,g 12.5,4.0
# From MPEC 2021-S45
420P/Hill,e,14.5031,173.9580,157.1245,5.522980,0.0759353,0.49514561,344.2300,10/27.0/2021,2000,g 11.5,4.0
# From MPEC 2021-L04
421P/McNaught,e,10.0802,55.3487,259.8243,5.075605,0.0861931,0.67557313,23.6323,10/27.0/2021,2000,g 14.0,4.0
# From MPEC 2021-TD0
422P/Christensen,e,39.5327,36.0621,305.1481,6.319908,0.0620352,0.50866366,355.1084,10/27.0/2021,2000,g 11.0,4.0
# From MPEC 2021-N06
423P/Lemmon,e,8.3461,33.3116,80.3927,6.164330,0.0643984,0.12058576,2.3954,10/27.0/2021,2000,g 10.0,4.0
# From MPEC 2021-UA9
424P/LaSagra,e,8.6854,51.1787,312.4736,4.415193,0.1062379,0.69136115,359.5077,10/27.0/2021,2000,g 17.0,4.0
# From MPEC 2021-UA9
425P/Kowalski,e,16.4211,210.0877,200.7332,6.329291,0.0618973,0.54337955,2.2646,10/27.0/2021,2000,g 12.0,4.0
# From MPEC 2021-U31
428P/Gibbs,e,8.5151,299.3350,36.8134,3.484323,0.1515397,0.51955770,25.0546,10/27.0/2021,2000,g 15.0,4.0
# From MPEC 2021-UA9
429P/LINEAR-Hill,e,7.5219,322.0720,75.5348,3.551687,0.1472489,0.49143745,350.1143,10/27.0/2021,2000,g 15.5,4.0
# From MPEC 2021-U31
430P/Scotti,e,4.4748,54.6746,94.5043,3.106807,0.1799835,0.49960355,353.4786,10/27.0/2021,2000,g 16.5,4.0
# From MPEC 2021-UA9
